start=new Date('2023-05-18T00:00:00.000Z').valueOf();
sats=[{"APOAPSIS":"548.016","ELEMENT_SET_NO":"999","MEAN_ELEMENT_THEORY":"SGP4","NORAD_CAT_ID":"48397","REF_FRAME":"TEME","EPOCH":"2023-05-17T15:19:44.959584","EPHEMERIS_TYPE":"0","TLE_LINE1":"1 48397U 21038AW  23137.63871481  .00020006  00000-0  13573-2 0  9998","BSTAR":"0.00135730000000","COUNTRY_CODE":"US","ARG_OF_PERICENTER":"99.7192","INCLINATION":"53.0532","ECCENTRICITY":"0.00012610","CENTER_NAME":"EARTH","REV_AT_EPOCH":"11372","MEAN_ANOMALY":"260.3940","OBJECT_TYPE":"PAYLOAD","OBJECT_NAME":"STARLINK-2590","PERIAPSIS":"546.269","TIME_SYSTEM":"UTC","TLE_LINE2":"2 48397  53.0532 272.2288 0001261  99.7192 260.3940 15.06423108113727","SEMIMAJOR_AXIS":"6925.278","OBJECT_ID":"2021-038AW","CLASSIFICATION_TYPE":"U","SITE":"AFETR","MEAN_MOTION_DDOT":"0.0000000000000","GP_ID":"232043309","PERIOD":"95.591","LAUNCH_DATE":"2021-05-04","RCS_SIZE":"LARGE","DECAY_DATE":null,"RA_OF_ASC_NODE":"272.2288","FILE":"3910633","MEAN_MOTION":"15.06423108","MEAN_MOTION_DOT":"0.00020006"},{"CLASSIFICATION_TYPE":"U","SITE":"AFETR","GP_ID":"232041558","MEAN_MOTION_DDOT":"0.0000000000000","PERIOD":"95.591","LAUNCH_DATE":"2021-05-04","RCS_SIZE":"LARGE","DECAY_DATE":null,"RA_OF_ASC_NODE":"272.2405","FILE":"3910633","MEAN_MOTION":"15.06419038","MEAN_MOTION_DOT":"0.00014742","APOAPSIS":"547.409","ELEMENT_SET_NO":"999","MEAN_ELEMENT_THEORY":"SGP4","REF_FRAME":"TEME","NORAD_CAT_ID":"48398","EPOCH":"2023-05-17T15:14:26.189376","EPHEMERIS_TYPE":"0","BSTAR":"0.00100600000000","TLE_LINE1":"1 48398U 21038AX  23137.63502534  .00014742  00000-0  10060-2 0  9997","COUNTRY_CODE":"US","ARG_OF_PERICENTER":"136.8561","INCLINATION":"53.0527","ECCENTRICITY":"0.00003660","CENTER_NAME":"EARTH","MEAN_ANOMALY":"223.2457","REV_AT_EPOCH":"11372","OBJECT_TYPE":"PAYLOAD","OBJECT_NAME":"STARLINK-2588","TIME_SYSTEM":"UTC","PERIAPSIS":"546.902","TLE_LINE2":"2 48398  53.0527 272.2405 0000366 136.8561 223.2457 15.06419038113729","SEMIMAJOR_AXIS":"6925.290","OBJECT_ID":"2021-038AX"},{"FILE":"3910633","RCS_SIZE":"LARGE","DECAY_DATE":null,"RA_OF_ASC_NODE":"272.2623","MEAN_MOTION_DOT":"0.00013589","MEAN_MOTION":"15.06414469","GP_ID":"232041808","MEAN_MOTION_DDOT":"0.0000000000000","PERIOD":"95.591","CLASSIFICATION_TYPE":"U","SITE":"AFETR","LAUNCH_DATE":"2021-05-04","CENTER_NAME":"EARTH","REV_AT_EPOCH":"11371","MEAN_ANOMALY":"256.9029","COUNTRY_CODE":"US","ARG_OF_PERICENTER":"103.2052","INCLINATION":"53.0538","ECCENTRICITY":"0.00008230","TLE_LINE2":"2 48399  53.0538 272.2623 0000823 103.2052 256.9029 15.06414469113715","SEMIMAJOR_AXIS":"6925.304","OBJECT_ID":"2021-038AY","OBJECT_TYPE":"PAYLOAD","OBJECT_NAME":"STARLINK-2587","PERIAPSIS":"546.599","TIME_SYSTEM":"UTC","ELEMENT_SET_NO":"999","APOAPSIS":"547.739","NORAD_CAT_ID":"48399","REF_FRAME":"TEME","EPHEMERIS_TYPE":"0","EPOCH":"2023-05-17T15:09:07.937568","BSTAR":"0.00092901000000","TLE_LINE1":"1 48399U 21038AY  23137.63134187  .00013589  00000-0  92901-3 0  9996","MEAN_ELEMENT_THEORY":"SGP4"},{"MEAN_MOTION_DOT":"0.00018411","MEAN_MOTION":"15.06422737","FILE":"3910633","RCS_SIZE":"LARGE","DECAY_DATE":null,"RA_OF_ASC_NODE":"271.9803","LAUNCH_DATE":"2021-05-04","PERIOD":"95.591","GP_ID":"232043059","MEAN_MOTION_DDOT":"0.0000000000000","CLASSIFICATION_TYPE":"U","SITE":"AFETR","TLE_LINE2":"2 48400  53.0541 271.9803 0001295  81.4279 278.6857 15.06422737112514","SEMIMAJOR_AXIS":"6925.279","OBJECT_ID":"2021-038AZ","OBJECT_NAME":"STARLINK-2576","TIME_SYSTEM":"UTC","PERIAPSIS":"546.247","OBJECT_TYPE":"PAYLOAD","CENTER_NAME":"EARTH","MEAN_ANOMALY":"278.6857","REV_AT_EPOCH":"11251","INCLINATION":"53.0541","ECCENTRICITY":"0.00012950","COUNTRY_CODE":"US","ARG_OF_PERICENTER":"81.4279","EPOCH":"2023-05-17T16:39:22.019904","EPHEMERIS_TYPE":"0","TLE_LINE1":"1 48400U 21038AZ  23137.69400486  .00018411  00000-0  12509-2 0  9997","BSTAR":"0.00125090000000","NORAD_CAT_ID":"48400","REF_FRAME":"TEME","MEAN_ELEMENT_THEORY":"SGP4","ELEMENT_SET_NO":"999","APOAPSIS":"548.041"},{"MEAN_ELEMENT_THEORY":"SGP4","BSTAR":"0.00086377000000","TLE_LINE1":"1 48401U 21038BA  23137.66451511  .00012613  00000-0  86377-3 0  9993","EPHEMERIS_TYPE":"0","EPOCH":"2023-05-17T15:56:54.105504","REF_FRAME":"TEME","NORAD_CAT_ID":"48401","APOAPSIS":"547.474","ELEMENT_SET_NO":"999","PERIAPSIS":"546.870","TIME_SYSTEM":"UTC","OBJECT_NAME":"STARLINK-2571","OBJECT_TYPE":"PAYLOAD","OBJECT_ID":"2021-038BA","SEMIMAJOR_AXIS":"6925.307","TLE_LINE2":"2 48401  53.0537 272.1216 0000436 107.5763 252.5273 15.06413548112507","ECCENTRICITY":"0.00004360","INCLINATION":"53.0537","COUNTRY_CODE":"US","ARG_OF_PERICENTER":"107.5763","REV_AT_EPOCH":"11250","MEAN_ANOMALY":"252.5273","CENTER_NAME":"EARTH","LAUNCH_DATE":"2021-05-04","SITE":"AFETR","CLASSIFICATION_TYPE":"U","PERIOD":"95.591","MEAN_MOTION_DDOT":"0.0000000000000","GP_ID":"232042810","MEAN_MOTION":"15.06413548","MEAN_MOTION_DOT":"0.00012613","RA_OF_ASC_NODE":"272.1216","DECAY_DATE":null,"RCS_SIZE":"LARGE","FILE":"3910633"},{"MEAN_MOTION":"15.06417663","MEAN_MOTION_DOT":"0.00013318","RCS_SIZE":"LARGE","DECAY_DATE":null,"RA_OF_ASC_NODE":"271.9890","FILE":"3910633","LAUNCH_DATE":"2021-05-04","SITE":"AFETR","CLASSIFICATION_TYPE":"U","GP_ID":"232042058","MEAN_MOTION_DDOT":"0.0000000000000","PERIOD":"95.591","OBJECT_TYPE":"PAYLOAD","OBJECT_NAME":"STARLINK-2560","PERIAPSIS":"546.366","TIME_SYSTEM":"UTC","TLE_LINE2":"2 48402  53.0543 271.9890 0001146  78.6038 281.5079 15.06417663112511","SEMIMAJOR_AXIS":"6925.294","OBJECT_ID":"2021-038BB","COUNTRY_CODE":"US","ARG_OF_PERICENTER":"78.6038","INCLINATION":"53.0543","ECCENTRICITY":"0.00011460","CENTER_NAME":"EARTH","MEAN_ANOMALY":"281.5079","REV_AT_EPOCH":"11251","MEAN_ELEMENT_THEORY":"SGP4","NORAD_CAT_ID":"48402","REF_FRAME":"TEME","EPHEMERIS_TYPE":"0","EPOCH":"2023-05-17T16:32:41.548128","TLE_LINE1":"1 48402U 21038BB  23137.68936977  .00013318  00000-0  91088-3 0  9998","BSTAR":"0.00091088000000","APOAPSIS":"547.953","ELEMENT_SET_NO":"999"},{"OBJECT_TYPE":"PAYLOAD","OBJECT_NAME":"STARLINK-2561","PERIAPSIS":"546.523","TIME_SYSTEM":"UTC","SEMIMAJOR_AXIS":"6925.198","TLE_LINE2":"2 48403  53.0537 272.0117 0000780 127.7849 232.3210 15.06449155112510","OBJECT_ID":"2021-038BC","ARG_OF_PERICENTER":"127.7849","COUNTRY_CODE":"US","INCLINATION":"53.0537","ECCENTRICITY":"0.00007800","CENTER_NAME":"EARTH","MEAN_ANOMALY":"232.3210","REV_AT_EPOCH":"11251","MEAN_ELEMENT_THEORY":"SGP4","REF_FRAME":"TEME","NORAD_CAT_ID":"48403","EPHEMERIS_TYPE":"0","EPOCH":"2023-05-17T16:28:43.678560","BSTAR":"0.00234190000000","TLE_LINE1":"1 48403U 21038BC  23137.68661665  .00034820  00000-0  23419-2 0  9991","APOAPSIS":"547.603","ELEMENT_SET_NO":"999","MEAN_MOTION":"15.06449155","MEAN_MOTION_DOT":"0.00034820","DECAY_DATE":null,"RCS_SIZE":"LARGE","RA_OF_ASC_NODE":"272.0117","FILE":"3910633","LAUNCH_DATE":"2021-05-04","SITE":"AFETR","CLASSIFICATION_TYPE":"U","MEAN_MOTION_DDOT":"0.0000000000000","GP_ID":"232042308","PERIOD":"95.589"},{"LAUNCH_DATE":"2021-05-04","PERIOD":"95.591","MEAN_MOTION_DDOT":"0.0000000000000","GP_ID":"232042560","CLASSIFICATION_TYPE":"U","SITE":"AFETR","MEAN_MOTION_DOT":"0.00012737","MEAN_MOTION":"15.06416054","FILE":"3910633","DECAY_DATE":null,"RCS_SIZE":"LARGE","RA_OF_ASC_NODE":"272.0268","EPOCH":"2023-05-17T16:23:26.272608","EPHEMERIS_TYPE":"0","TLE_LINE1":"1 48404U 21038BD  23137.68294297  .00012737  00000-0  87207-3 0  9994","BSTAR":"0.00087207000000","NORAD_CAT_ID":"48404","REF_FRAME":"TEME","MEAN_ELEMENT_THEORY":"SGP4","ELEMENT_SET_NO":"999","APOAPSIS":"547.910","TLE_LINE2":"2 48404  53.0534 272.0268 0001077  91.9065 268.2048 15.06416054112516","SEMIMAJOR_AXIS":"6925.299","OBJECT_ID":"2021-038BD","OBJECT_NAME":"STARLINK-2593","PERIAPSIS":"546.419","TIME_SYSTEM":"UTC","OBJECT_TYPE":"PAYLOAD","CENTER_NAME":"EARTH","REV_AT_EPOCH":"11251","MEAN_ANOMALY":"268.2048","INCLINATION":"53.0534","ECCENTRICITY":"0.00010770","ARG_OF_PERICENTER":"91.9065","COUNTRY_CODE":"US"},{"OBJECT_ID":"2021-038BE","TLE_LINE2":"2 48405  53.0531 272.0489 0000502 108.4179 251.6864 15.06421097112516","SEMIMAJOR_AXIS":"6925.284","TIME_SYSTEM":"UTC","PERIAPSIS":"546.801","OBJECT_NAME":"STARLINK-2570","OBJECT_TYPE":"PAYLOAD","REV_AT_EPOCH":"11251","MEAN_ANOMALY":"251.6864","CENTER_NAME":"EARTH","ECCENTRICITY":"0.00005020","INCLINATION":"53.0531","COUNTRY_CODE":"US","ARG_OF_PERICENTER":"108.4179","TLE_LINE1":"1 48405U 21038BE  23137.67925521  .00016342  00000-0  11128-2 0  9999","BSTAR":"0.00111280000000","EPHEMERIS_TYPE":"0","EPOCH":"2023-05-17T16:18:07.650144","NORAD_CAT_ID":"48405","REF_FRAME":"TEME","MEAN_ELEMENT_THEORY":"SGP4","ELEMENT_SET_NO":"999","APOAPSIS":"547.497","MEAN_MOTION_DOT":"0.00016342","MEAN_MOTION":"15.06421097","FILE":"3910633","RA_OF_ASC_NODE":"272.0489","RCS_SIZE":"LARGE","DECAY_DATE":null,"LAUNCH_DATE":"2021-05-04","PERIOD":"95.591","GP_ID":"232043310","MEAN_MOTION_DDOT":"0.0000000000000","SITE":"AFETR","CLASSIFICATION_TYPE":"U"},{"PERIOD":"95.591","GP_ID":"232041559","MEAN_MOTION_DDOT":"0.0000000000000","CLASSIFICATION_TYPE":"U","SITE":"AFETR","LAUNCH_DATE":"2021-05-04","FILE":"3910633","RCS_SIZE":"LARGE","DECAY_DATE":null,"RA_OF_ASC_NODE":"272.0613","MEAN_MOTION_DOT":"0.00015501","MEAN_MOTION":"15.06418026","ELEMENT_SET_NO":"999","APOAPSIS":"547.784","EPOCH":"2023-05-17T16:12:49.160736","EPHEMERIS_TYPE":"0","TLE_LINE1":"1 48406U 21038BF  23137.67556899  .00015501  00000-0  10567-2 0  9990","BSTAR":"0.00105670000000","REF_FRAME":"TEME","NORAD_CAT_ID":"48406","MEAN_ELEMENT_THEORY":"SGP4","CENTER_NAME":"EARTH","REV_AT_EPOCH":"11251","MEAN_ANOMALY":"261.3117","INCLINATION":"53.0540","ECCENTRICITY":"0.00009030","COUNTRY_CODE":"US","ARG_OF_PERICENTER":"98.7974","SEMIMAJOR_AXIS":"6925.293","TLE_LINE2":"2 48406  53.0540 272.0613 0000903  98.7974 261.3117 15.06418026112512","OBJECT_ID":"2021-038BF","OBJECT_NAME":"STARLINK-2568","PERIAPSIS":"546.533","TIME_SYSTEM":"UTC","OBJECT_TYPE":"PAYLOAD"}];
